BEIDOU-2 IGSO-1 (C06)   
1 36828U 10036A   26042.76392389 -.00000128  00000+0  00000+0 0  9998
2 36828  54.2945 164.0969 0053200 217.7919 141.3892  1.00258453 56837
BEIDOU-2 G4 (C04)       
1 37210U 10057A   26044.14742976 -.00000107  00000+0  00000+0 0  9999
2 37210   3.3377  69.6676 0009435 207.3938  79.1429  1.00273612 56040
BEIDOU-2 IGSO-2 (C07)   
1 37256U 10068A   26043.56641350 -.00000146  00000+0  00000+0 0  9993
2 37256  47.7677 273.3765 0047040 214.2159 326.8842  1.00265994 55543
BEIDOU-2 IGSO-3 (C08)   
1 37384U 11013A   26040.42829347 -.00000146  00000+0  00000+0 0  9992
2 37384  62.2276  41.3533 0033282 190.4190 166.7485  1.00256816 54378
BEIDOU-2 IGSO-4 (C09)   
1 37763U 11038A   26041.73185492 -.00000075  00000+0  00000+0 0  9992
2 37763  54.5913 166.8131 0153034 230.6213 101.7373  1.00269974 53372
BEIDOU-2 IGSO-5 (C10)   
1 37948U 11073A   26042.56972453 -.00000104  00000+0  00000+0 0  9992
2 37948  47.9049 273.1008 0108475 221.5612 307.1983  1.00277798 51874
BEIDOU-2 G5 (C05)       
1 38091U 12008A   26044.19856334  .00000063  00000+0  00000+0 0  9994
2 38091   3.2634  70.4328 0014070 247.5076 315.4360  1.00271403 51127
BEIDOU-2 M3 (C11)       
1 38250U 12018A   26043.61449921 -.00000058  00000+0  00000+0 0  9993
2 38250  55.8644 309.0756 0022170 279.1541  80.6438  1.86230162 93621
BEIDOU-2 M4 (C12)       
1 38251U 12018B   26041.93574970 -.00000071  00000+0  00000+0 0  9995
2 38251  55.7667 308.3562 0013424 285.6556  74.2415  1.86229777 93593
BEIDOU-2 M6 (C14)       
1 38775U 12050B   26043.79399648 -.00000010  00000+0  00000+0 0  9998
2 38775  56.4340  67.0072 0013388 340.6484  19.3631  1.86231012 90992
BEIDOU-2 G6 (C02)       
1 38953U 12059A   26044.06102266 -.00000171  00000+0  00000+0 0  9992
2 38953   4.1060  74.8704 0009990 300.4096 233.8064  1.00273584 48660
BEIDOU-3S IGSO-1S (C31) 
1 40549U 15019A   26042.69477550 -.00000158  00000+0  00000+0 0  9998
2 40549  49.4303 296.9770 0035399 191.6101 359.6844  1.00279601 39811
BEIDOU-3S M2S (C58)     
1 40748U 15037A   26042.14013736 -.00000066  00000+0  00000+0 0  9999
2 40748  54.9825 306.3874 0009852 277.6414  82.2942  1.86232072 71774
BEIDOU-3S M1S (C57)     
1 40749U 15037B   26043.43666876 -.00000055  00000+0  00000+0 0  9990
2 40749  54.9773 306.3321 0004453  23.4378 336.6333  1.86254175 71804
BEIDOU-3S IGSO-2S (C56) 
1 40938U 15053A   26027.67705003 -.00000079  00000+0  00000+0 0  9998
2 40938  49.4373 260.4556 0061515 187.1638  17.4903  1.00254296 37942
BEIDOU-2 IGSO-6 (C13)   
1 41434U 16021A   26039.71487823 -.00000134  00000+0  00000+0 0  9993
2 41434  60.0489  39.3129 0060501 232.8757 219.3449  1.00283122 36198
BEIDOU-2 G7 (C03)       
1 41586U 16037A   26043.49569314 -.00000346  00000+0  00000+0 0  9999
2 41586   1.9069  68.3521 0006749   1.1300   1.9637  1.00267103  5648
BEIDOU-3 M1 (C19)       
1 43001U 17069A   26043.55944363 -.00000011  00000+0  00000+0 0  9996
2 43001  56.5817  67.1894 0011909 306.1142  53.8374  1.86231365 56280
BEIDOU-3 M2 (C20)       
1 43002U 17069B   26042.96094922 -.00000018  00000+0  00000+0 0  9995
2 43002  56.5804  67.2452 0009007 326.4017  33.6013  1.86230922 56262
BEIDOU-3 M7 (C27)       
1 43107U 18003A   26043.24014376 -.00000058  00000+0  00000+0 0  9991
2 43107  54.4393 306.6737 0004215  67.3284 292.7656  1.86232577 55029
BEIDOU-3 M8 (C28)       
1 43108U 18003B   26042.11163567 -.00000067  00000+0  00000+0 0  9994
2 43108  54.4330 306.6954 0003558 291.3623  68.6465  1.86231047 55015
BEIDOU-3 M4 (C22)       
1 43207U 18018A   26043.62770383 -.00000011  00000+0  00000+0 0  9996
2 43207  56.5408  67.2554 0006045 348.2862  11.7619  1.86231284 54428
BEIDOU-3 M3 (C21)       
1 43208U 18018B   26043.69416139 -.00000010  00000+0  00000+0 0  9999
2 43208  56.5402  67.2573 0009351 315.8777  44.1100  1.86231378 54421
BEIDOU-3 M9 (C29)       
1 43245U 18029A   26043.37410737 -.00000051  00000+0  00000+0 0  9990
2 43245  54.3066 304.3159 0001083 351.9100   8.1409  1.86228532 53579
BEIDOU-3 M10 (C30)      
1 43246U 18029B   26043.84604013 -.00000047  00000+0  00000+0 0  9990
2 43246  54.3038 304.3262 0005071  17.9267 342.1454  1.86229234 53568
BEIDOU-2 IGSO-7 (C16)   
1 43539U 18057A   26042.87029251 -.00000138  00000+0  00000+0 0  9994
2 43539  55.1880 164.1553 0098667 236.3398 166.2822  1.00289413 27877
BEIDOU-3 M5 (C23)       
1 43581U 18062A   26043.53327742  .00000031  00000+0  00000+0 0  9998
2 43581  54.0901 186.5412 0001756 332.6296  27.3205  1.86228795 51316
BEIDOU-3 M6 (C24)       
1 43582U 18062B   26041.78521569  .00000045  00000+0  00000+0 0  9992
2 43582  54.0892 186.5899 0006575  42.1422 317.8719  1.86227674 51281
BEIDOU-3 M12 (C26)      
1 43602U 18067A   26043.33451116  .00000030  00000+0  00000+0 0  9997
2 43602  54.1843 185.2731 0008921  41.5147 318.5126  1.86227887 50797
BEIDOU-3 M11 (C25)      
1 43603U 18067B   26043.46919601  .00000029  00000+0  00000+0 0  9998
2 43603  54.1812 185.2323 0005330  36.7217 323.2741  1.86227335 50824
BEIDOU-3 M13 (C32)      
1 43622U 18072A   26043.42531685 -.00000013  00000+0  00000+0 0  9997
2 43622  56.5139  66.7764 0008480 303.4561  56.5238  1.86231145 50337
BEIDOU-3 M14 (C33)      
1 43623U 18072B   26043.82773560 -.00000009  00000+0  00000+0 0  9997
2 43623  56.5161  66.7572 0005763 325.0046  35.0197  1.86231158 50339
BEIDOU-3 M16 (C35)      
1 43647U 18078A   26042.37395384 -.00000060  00000+0  00000+0 0  9999
2 43647  54.2038 304.3988 0008300  27.7555 332.3385  1.86232446 49810
BEIDOU-3 M15 (C34)      
1 43648U 18078B   26043.04018421 -.00000054  00000+0  00000+0 0  9992
2 43648  54.1990 304.3760 0005134  32.7579 327.3255  1.86232364 49841
BEIDOU-3 G1 (C59)       
1 43683U 18085A   26044.21471921 -.00000274  00000+0  00000+0 0  9991
2 43683   2.7623 101.0057 0001497  22.2344 237.3301  1.00269344 26813
BEIDOU-3 M17 (C36)      
1 43706U 18093A   26042.81085623  .00000037  00000+0  00000+0 0  9996
2 43706  54.1736 186.5489 0006398 300.9950 158.3970  1.86228481 49209
BEIDOU-3 M18 (C37)      
1 43707U 18093B   26043.06154581  .00000035  00000+0  00000+0 0  9993
2 43707  54.1743 186.5322 0005968 348.1392  11.8075  1.86226623 49205
BEIDOU-3 IGSO-1 (C38)   
1 44204U 19023A   26043.88864312 -.00000176  00000+0  00000+0 0  9997
2 44204  58.5246  38.9270 0026439 235.2935 307.9893  1.00276944  5960
BEIDOU-2 G8 (C01)       
1 44231U 19027A   26044.21567256 -.00000241  00000+0  00000+0 0  9999
2 44231   1.8185  74.7833 0008997 266.8164  23.8202  1.00274534 24837
BEIDOU-3 IGSO-2 (C39)   
1 44337U 19035A   26043.71642076 -.00000154  00000+0  00000+0 0  9996
2 44337  55.2350 159.9576 0038390 205.0783 152.3921  1.00252064 24417
BEIDOU-3 M24 (C46)      
1 44542U 19061A   26042.05788044  .00000044  00000+0  00000+0 0  9992
2 44542  54.4010 186.9804 0009037  24.5128 335.4934  1.86229150 43442
BEIDOU-3 M23 (C45)      
1 44543U 19061B   26043.35385177  .00000033  00000+0  00000+0 0  9995
2 44543  54.3996 186.9053 0005442  21.3845  39.8775  1.86227412 43478
BEIDOU-3 IGSO-3 (C40)   
1 44709U 19073A   26042.05990539 -.00000151  00000+0  00000+0 0  9994
2 44709  55.0141 282.2633 0040263 189.5275 170.4861  1.00276017 23196
BEIDOU-3 M22 (C44)      
1 44793U 19078A   26043.50833594 -.00000050  00000+0  00000+0 0  9998
2 44793  54.0491 304.2164 0007155  33.0277 327.0700  1.86232225 42323
BEIDOU-3 M21 (C43)      
1 44794U 19078B   26042.57349303 -.00000058  00000+0  00000+0 0  9993
2 44794  54.0233 304.2129 0005163  26.1943 333.8822  1.86227887 42316
BEIDOU-3 M19 (C41)      
1 44864U 19090A   26043.89540184 -.00000008  00000+0  00000+0 0  9996
2 44864  56.4485  66.8987 0020221 289.0669  73.5785  1.86231589 41925
BEIDOU-3 M20 (C42)      
1 44865U 19090B   26043.76228117 -.00000010  00000+0  00000+0 0  9995
2 44865  56.4500  66.9375 0017491 300.4314  62.5752  1.86231572 41908
BEIDOU-3 G2 (C60)       
1 45344U 20017A   26044.13156968 -.00000134  00000+0  00000+0 0  9992
2 45344   2.6154  45.2159 0002458 293.7136 291.6247  1.00271816 22018
BEIDOU-3 G3 (C61)       
1 45807U 20040A   26043.92365532 -.00000348  00000+0  00000+0 0  9994
2 45807   2.1412  67.0465 0004736 317.8895 201.0823  1.00274130 20821
BEIDOU-3 G4 (C62)       
1 56564U 23066A   26044.14734309 -.00000104  00000+0  00000+0 0  9994
2 56564   0.6857 308.2334 0001885 176.1336 231.8477  1.00273202 10152
BEIDOU-3 M28 (C50)      
1 58654U 23207A   26043.72511759 -.00000013  00000+0  00000+0 0  9997
2 58654  55.6411  66.5017 0004592 295.1642  64.8493  1.86229834 14525
BEIDOU-3 M26 (C48)      
1 58655U 23207B   26043.52258359 -.00000015  00000+0  00000+0 0  9992
2 58655  55.6428  66.4948 0005554 281.4769  78.5212  1.86229723 14509
BEIDOU-3 M25 (C47)      
1 61186U 24168B   26042.52102318 -.00000064  00000+0  00000+0 0  9998
2 61186  54.5850 306.6117 0004723 314.1144 211.3287  1.86230327  9442
BEIDOU-3 M27 (C49)      
1 61187U 24168C   26043.41711316 -.00000056  00000+0  00000+0 0  9993
2 61187  54.5796 306.5640 0002934   9.1140 172.0892  1.86230474  6930
